VSP RF A1               
1 59135U 24043AP  26066.03073316  .00000577  00000+0  25199-4 0  9997
2 59135  97.5247 201.5379 0009431 234.6315 125.4042 15.26179596111403
STARLINK-34018          
1 63836U 25093A   26068.44732634  .00034620  00000+0  12626-2 0  9993
2 63836  43.0028  79.3993 0002287 280.0045  80.0548 15.27555100 47932
